{
"type": "FeatureCollection",
"name": "newwire230526",
"crs": { "type": "name", "properties": { "name": "urn:ogc:def:crs:OGC:1.3:CRS84" } },
"features": [
{ "type": "Feature", "properties": { "id": null, "length": null }, "geometry": { "type": "MultiLineString", "coordinates": [ [ [ 37.28976547180563, 50.01786457804269 ], [ 37.289231138595959, 50.033058824431357 ] ] ] } },
{ "type": "Feature", "properties": { "id": null, "length": null }, "geometry": { "type": "MultiLineString", "coordinates": [ [ [ 37.289312315375547, 50.017847794471216 ], [ 37.288853407130077, 50.023483154619569 ], [ 37.288577372597317, 50.033198805444499 ] ] ] } },
{ "type": "Feature", "properties": { "id": null, "length": null }, "geometry": { "type": "MultiLineString", "coordinates": [ [ [ 37.288515370371847, 50.017756270729329 ], [ 37.288461147530874, 50.021074937246659 ], [ 37.288243225531332, 50.025779249449798 ], [ 37.288054359798387, 50.031201704374681 ], [ 37.28799624726517, 50.033329454021903 ] ] ] } },
{ "type": "Feature", "properties": { "id": null, "length": null }, "geometry": { "type": "MultiLineString", "coordinates": [ [ [ 37.28809111829289, 50.017705360479845 ], [ 37.287909078465368, 50.02189635828897 ], [ 37.287633043932615, 50.027188586630899 ], [ 37.28745870633297, 50.032340248807138 ], [ 37.287429650066365, 50.033497430242008 ] ] ] } },
{ "type": "Feature", "properties": { "id": null, "length": null }, "geometry": { "type": "MultiLineString", "coordinates": [ [ [ 37.289347363662394, 50.033366782121583 ], [ 37.28963792632846, 50.033740061522565 ], [ 37.287923606598675, 50.036800843160179 ], [ 37.28511967687114, 50.042110089970308 ] ] ] } },
{ "type": "Feature", "properties": { "id": null, "length": null }, "geometry": { "type": "MultiLineString", "coordinates": [ [ [ 37.284683832872048, 50.042082098996019 ], [ 37.287269840600025, 50.03726740858913 ], [ 37.28914396979615, 50.033814717054561 ], [ 37.288809822730173, 50.033469434246122 ] ] ] } },
{ "type": "Feature", "properties": { "id": null, "length": null }, "geometry": { "type": "MultiLineString", "coordinates": [ [ [ 37.288127000464911, 50.033637409976542 ], [ 37.28828680993125, 50.033777389303076 ], [ 37.286616074601383, 50.037006132507464 ] ] ] } },
{ "type": "Feature", "properties": { "id": null, "length": null }, "geometry": { "type": "MultiLineString", "coordinates": [ [ [ 37.286485321401649, 50.037323396135939 ], [ 37.283986482473487, 50.042091429322589 ] ] ] } },
{ "type": "Feature", "properties": { "id": null, "length": null }, "geometry": { "type": "MultiLineString", "coordinates": [ [ [ 37.283216491408425, 50.042138080928289 ], [ 37.285802499136402, 50.037426039802163 ] ] ] } },
{ "type": "Feature", "properties": { "id": null, "length": null }, "geometry": { "type": "MultiLineString", "coordinates": [ [ [ 37.286180230602291, 50.03693148193728 ], [ 37.287792853398948, 50.033786721243651 ] ] ] } },
{ "type": "Feature", "properties": { "id": null, "length": null }, "geometry": { "type": "MultiLineString", "coordinates": [ [ [ 37.186862945285469, 50.119992982224325 ], [ 37.188013633872288, 50.118930389039058 ], [ 37.189611728535631, 50.118408724759732 ], [ 37.193778306455584, 50.117114860299417 ] ] ] } },
{ "type": "Feature", "properties": { "id": null, "length": null }, "geometry": { "type": "MultiLineString", "coordinates": [ [ [ 37.194413338620492, 50.117317338169997 ], [ 37.188464006004679, 50.119247111006814 ], [ 37.187284006620956, 50.12009422345669 ] ] ] } },
{ "type": "Feature", "properties": { "id": null, "length": null }, "geometry": { "type": "MultiLineString", "coordinates": [ [ [ 37.187823361830993, 50.12015685762654 ], [ 37.188870793737173, 50.119452047634127 ], [ 37.194783743991593, 50.117616902045299 ], [ 37.195277820452986, 50.117264727922397 ] ] ] } },
{ "type": "Feature", "properties": { "id": null, "length": null }, "geometry": { "type": "MultiLineString", "coordinates": [ [ [ 37.19543886160244, 50.11762614549685 ], [ 37.195176003590781, 50.117915001545455 ], [ 37.189233997069749, 50.119824657436176 ], [ 37.188935946573615, 50.120249905373321 ] ] ] } },
{ "type": "Feature", "properties": { "id": null, "length": null }, "geometry": { "type": "MultiLineString", "coordinates": [ [ [ 37.076685444134995, 50.120114291417309 ], [ 37.078783390570521, 50.119988414631194 ] ] ] } },
{ "type": "Feature", "properties": { "id": null, "length": null }, "geometry": { "type": "MultiLineString", "coordinates": [ [ [ 37.076593134491837, 50.119854146059303 ], [ 37.081926881155745, 50.119638286229659 ] ] ] } },
{ "type": "Feature", "properties": { "id": null, "length": null }, "geometry": { "type": "MultiLineString", "coordinates": [ [ [ 36.902269881550346, 50.094899953612476 ], [ 36.900972082474873, 50.094942855994987 ] ] ] } },
{ "type": "Feature", "properties": { "id": null, "length": null }, "geometry": { "type": "MultiLineString", "coordinates": [ [ [ 36.903416296582485, 50.095283721586789 ], [ 36.901983745398006, 50.095505788456855 ], [ 36.901338744344358, 50.095663143794837 ] ] ] } },
{ "type": "Feature", "properties": { "id": null, "length": null }, "geometry": { "type": "MultiLineString", "coordinates": [ [ [ 36.523030606588293, 49.868855264910479 ], [ 36.504276096221254, 49.873612930330282 ] ] ] } },
{ "type": "Feature", "properties": { "id": null, "length": null }, "geometry": { "type": "MultiLineString", "coordinates": [ [ [ 36.51987943499222, 49.869654690446232 ], [ 36.519879311388962, 49.8675453051709 ], [ 36.522973803782556, 49.867039635332603 ] ] ] } },
{ "type": "Feature", "properties": { "id": null, "length": null }, "geometry": { "type": "MultiLineString", "coordinates": [ [ [ 36.523017388182467, 49.867741953122838 ], [ 36.521971362584637, 49.868472352792331 ], [ 36.51987938381771, 49.868781368954416 ] ] ] } },
{ "type": "Feature", "properties": { "id": null, "length": null }, "geometry": { "type": "MultiLineString", "coordinates": [ [ [ 36.464348227595011, 50.016480958038713 ], [ 36.471849302688376, 50.017243009199163 ], [ 36.474202860283505, 50.017747104889928 ], [ 36.481960883467444, 50.019539402290981 ], [ 36.491898126646873, 50.022619757235248 ], [ 36.516654065795635, 50.031187705710181 ] ] ] } },
{ "type": "Feature", "properties": { "id": null, "length": null }, "geometry": { "type": "MultiLineString", "coordinates": [ [ [ 36.492377555045877, 50.05360833456109 ], [ 36.486308427358445, 50.058162556928828 ] ] ] } },
{ "type": "Feature", "properties": { "id": null, "length": null }, "geometry": { "type": "MultiLineString", "coordinates": [ [ [ 36.504276096221254, 50.044176711818615 ], [ 36.50810062731334, 50.043553935593934 ] ] ] } },
{ "type": "Feature", "properties": { "id": null, "length": null }, "geometry": { "type": "MultiLineString", "coordinates": [ [ [ 37.513311938470025, 48.601950332942124 ], [ 37.511479483368703, 48.600198011358671 ] ] ] } },
{ "type": "Feature", "properties": { "id": null, "length": null }, "geometry": { "type": "MultiLineString", "coordinates": [ [ [ 35.534355694112662, 47.646729109101933 ], [ 35.534934541977464, 47.645980964757243 ], [ 35.536005521133625, 47.64601000617445 ], [ 35.536352632004338, 47.646363115674511 ], [ 35.536382061001881, 47.646777431335352 ] ] ] } },
{ "type": "Feature", "properties": { "id": null, "length": null }, "geometry": { "type": "MultiLineString", "coordinates": [ [ [ 35.855618250409627, 47.707746131001016 ], [ 35.853506882379548, 47.707753067190296 ], [ 35.85199111138806, 47.707457121236658 ] ] ] } },
{ "type": "Feature", "properties": { "id": null, "length": null }, "geometry": { "type": "MultiLineString", "coordinates": [ [ [ 35.876019370920609, 47.710079032592795 ], [ 35.886655192278603, 47.711033244780673 ] ] ] } },
{ "type": "Feature", "properties": { "id": null, "length": null }, "geometry": { "type": "MultiLineString", "coordinates": [ [ [ 35.852922887047811, 47.705531451539848 ], [ 35.854481832670679, 47.700595599486597 ] ] ] } },
{ "type": "Feature", "properties": { "id": null, "length": null }, "geometry": { "type": "MultiLineString", "coordinates": [ [ [ 35.897323493455993, 47.750742261894345 ], [ 35.90181123771373, 47.748800043906257 ], [ 35.903140715383479, 47.74367466590077 ] ] ] } },
{ "type": "Feature", "properties": { "id": null, "length": null }, "geometry": { "type": "MultiLineString", "coordinates": [ [ [ 35.840474791033436, 47.844659342790123 ], [ 35.840944159040106, 47.844355050878661 ], [ 35.846477014541286, 47.841389991943828 ] ] ] } },
{ "type": "Feature", "properties": { "id": null, "length": null }, "geometry": { "type": "MultiLineString", "coordinates": [ [ [ 36.345247995640683, 48.241016323924867 ], [ 36.341579813812892, 48.236343026553087 ], [ 36.340517189307668, 48.234898947097264 ] ] ] } },
{ "type": "Feature", "properties": { "id": null, "length": null }, "geometry": { "type": "MultiLineString", "coordinates": [ [ [ 36.702361273680879, 48.382849974238731 ], [ 36.697436412543105, 48.384218125167919 ] ] ] } },
{ "type": "Feature", "properties": { "id": null, "length": null }, "geometry": { "type": "MultiLineString", "coordinates": [ [ [ 37.233889733316204, 49.712587507818313 ], [ 37.233663303491326, 49.715148506264711 ], [ 37.233507209884927, 49.717495292144584 ], [ 37.234523505752577, 49.720076660605095 ], [ 37.234675373459034, 49.720603143186288 ], [ 37.232294539908096, 49.722291886313911 ] ] ] } },
{ "type": "Feature", "properties": { "id": null, "length": null }, "geometry": { "type": "MultiLineString", "coordinates": [ [ [ 37.232905468493037, 49.711450512246721 ], [ 37.232799432405677, 49.712472963963272 ], [ 37.232309432612347, 49.716720854847111 ], [ 37.233937448003033, 49.720573296055576 ], [ 37.233083616170696, 49.721051721308349 ] ] ] } },
{ "type": "Feature", "properties": { "id": null, "length": null }, "geometry": { "type": "MultiLineString", "coordinates": [ [ [ 36.340517189307668, 48.234898947097264 ], [ 36.339035166277007, 48.232442700914028 ] ] ] } },
{ "type": "Feature", "properties": { "id": null, "length": null }, "geometry": { "type": "MultiLineString", "coordinates": [ [ [ 36.337732263581564, 48.230297922630768 ], [ 36.336128691033331, 48.226830196995202 ] ] ] } },
{ "type": "Feature", "properties": { "id": null, "length": null }, "geometry": { "type": "MultiLineString", "coordinates": [ [ [ 36.405158963021691, 48.373779562336793 ], [ 36.404390769946126, 48.377004766137595 ] ] ] } },
{ "type": "Feature", "properties": { "id": null, "length": null }, "geometry": { "type": "MultiLineString", "coordinates": [ ] } },
{ "type": "Feature", "properties": { "id": null, "length": null }, "geometry": { "type": "MultiLineString", "coordinates": [ [ [ 36.414685662927624, 48.118918707838418 ], [ 36.413673679048323, 48.119913469735735 ], [ 36.412749893702085, 48.120923859958182 ], [ 36.416488337525116, 48.123247757469798 ], [ 36.419779322821071, 48.124893250117772 ], [ 36.421525854491286, 48.126755254956272 ], [ 36.421886708142154, 48.127476962258015 ], [ 36.422146522770781, 48.133265054817997 ], [ 36.422189825208889, 48.135011586488218 ], [ 36.422622849589935, 48.137292181561726 ], [ 36.423315688599608, 48.139168620546258 ], [ 36.42428277638394, 48.140583166857674 ], [ 36.428540849464227, 48.145187659442797 ], [ 36.431572020131547, 48.148334303278403 ] ] ] } },
{ "type": "Feature", "properties": { "id": null, "length": null }, "geometry": { "type": "MultiLineString", "coordinates": [ [ [ 36.484738231241131, 48.096911348516066 ], [ 36.483635984879314, 48.101596538417503 ] ] ] } },
{ "type": "Feature", "properties": { "id": null, "length": null }, "geometry": { "type": "MultiLineString", "coordinates": [ [ [ 36.487665056069609, 48.187483367532593 ], [ 36.487995592357457, 48.187028880136801 ] ] ] } },
{ "type": "Feature", "properties": { "id": null, "length": null }, "geometry": { "type": "MultiLineString", "coordinates": [ [ [ 36.488222836055357, 48.186595051258998 ], [ 36.488615347897181, 48.18603727127325 ] ] ] } },
{ "type": "Feature", "properties": { "id": null, "length": null }, "geometry": { "type": "MultiLineString", "coordinates": [ [ [ 36.327449097087779, 48.335009898674734 ], [ 36.329464871080859, 48.335317839550669 ], [ 36.348532377992925, 48.335476615157042 ] ] ] } },
{ "type": "Feature", "properties": { "id": null, "length": null }, "geometry": { "type": "MultiLineString", "coordinates": [ [ [ 36.330969953072824, 48.336292390305168 ], [ 36.344606290271436, 48.336530307817583 ] ] ] } },
{ "type": "Feature", "properties": { "id": null, "length": null }, "geometry": { "type": "MultiLineString", "coordinates": [ [ [ 36.742465815016949, 48.295993804723025 ], [ 36.743465047652968, 48.296201303796167 ], [ 36.74259899889087, 48.302812142680132 ], [ 36.741184452579461, 48.311559235177249 ], [ 36.736782038038825, 48.311227249818451 ], [ 36.732076506431447, 48.313551147330067 ], [ 36.730200067446916, 48.314229552193709 ], [ 36.728424667484624, 48.314489366822336 ], [ 36.726490491915946, 48.314547103406454 ] ] ] } },
{ "type": "Feature", "properties": { "id": null, "length": null }, "geometry": { "type": "MultiLineString", "coordinates": [ [ [ 36.721844793533542, 48.37584153387035 ], [ 36.716574233589988, 48.375141648460819 ], [ 36.714149297056132, 48.379904916652329 ], [ 36.708453533534623, 48.381339636837666 ] ] ] } },
{ "type": "Feature", "properties": { "id": null, "length": null }, "geometry": { "type": "MultiLineString", "coordinates": [ [ [ 36.708504443784101, 48.38162812825135 ], [ 36.714553453145108, 48.380092560550779 ], [ 36.716312084451758, 48.376529913903767 ], [ 36.717105121200625, 48.376338611586014 ], [ 36.717376188542524, 48.375781147316431 ], [ 36.721675711182534, 48.37626423974789 ] ] ] } },
{ "type": "Feature", "properties": { "id": null, "length": null }, "geometry": { "type": "MultiLineString", "coordinates": [ [ [ 36.724801696829864, 48.37541589723547 ], [ 36.722742343553726, 48.375281317150225 ] ] ] } },
{ "type": "Feature", "properties": { "id": null, "length": null }, "geometry": { "type": "MultiLineString", "coordinates": [ [ [ 37.084529484310885, 48.579839490454283 ], [ 37.079564138074886, 48.584227470848887 ], [ 37.078236196639679, 48.586132778125489 ], [ 37.076735045452054, 48.587172036639998 ], [ 37.075407104016847, 48.588326768322787 ], [ 37.072958754901805, 48.589782316257974 ] ] ] } },
{ "type": "Feature", "properties": { "id": null, "length": null }, "geometry": { "type": "MultiLineString", "coordinates": [ [ [ 37.056916962946175, 48.846856757953319 ], [ 37.057985089752755, 48.84743412379472 ], [ 37.059601714108659, 48.847953753051975 ] ] ] } },
{ "type": "Feature", "properties": { "id": null, "length": null }, "geometry": { "type": "MultiLineString", "coordinates": [ [ [ 37.536248384864081, 48.596075914176431 ], [ 37.536433728370525, 48.600278241239664 ] ] ] } },
{ "type": "Feature", "properties": { "id": null, "length": null }, "geometry": { "type": "MultiLineString", "coordinates": [ [ [ 37.603536721292144, 48.752559576536441 ], [ 37.602917405007162, 48.752529613615451 ], [ 37.601666142550329, 48.752344241483705 ] ] ] } },
{ "type": "Feature", "properties": { "id": null, "length": null }, "geometry": { "type": "MultiLineString", "coordinates": [ [ [ 37.578242232360587, 48.799112211406516 ], [ 37.577188256497749, 48.800012658522292 ] ] ] } },
{ "type": "Feature", "properties": { "id": null, "length": null }, "geometry": { "type": "MultiLineString", "coordinates": [ [ [ 37.679483332649149, 48.814830996438502 ], [ 37.678559547302918, 48.813387581835016 ], [ 37.676538766858037, 48.81223285015222 ] ] ] } },
{ "type": "Feature", "properties": { "id": null, "length": null }, "geometry": { "type": "MultiLineString", "coordinates": [ [ [ 37.777272217873552, 48.825461257519152 ], [ 37.778270628111777, 48.827273230320593 ], [ 37.777520052517964, 48.8286011717558 ], [ 37.777231369597267, 48.830448742448262 ] ] ] } },
{ "type": "Feature", "properties": { "id": null, "length": null }, "geometry": { "type": "MultiLineString", "coordinates": [ [ [ 37.656453111652155, 48.896262766328462 ], [ 37.65353073807843, 48.893987853293751 ], [ 37.651394484465271, 48.893670302080984 ], [ 37.650615040579389, 48.891591785051958 ] ] ] } },
{ "type": "Feature", "properties": { "id": null, "length": null }, "geometry": { "type": "MultiLineString", "coordinates": [ [ [ 37.715943985533201, 48.888069853419452 ], [ 37.709766171030282, 48.888993638765683 ] ] ] } },
{ "type": "Feature", "properties": { "id": null, "length": null }, "geometry": { "type": "MultiLineString", "coordinates": [ [ [ 37.313953018462144, 48.590596537786887 ], [ 37.31517992087511, 48.590841918269469 ] ] ] } },
{ "type": "Feature", "properties": { "id": null, "length": null }, "geometry": { "type": "MultiLineString", "coordinates": [ [ [ 37.315425301357692, 48.590906871926627 ], [ 37.316731591573848, 48.590495498764632 ] ] ] } },
{ "type": "Feature", "properties": { "id": null, "length": null }, "geometry": { "type": "MultiLineString", "coordinates": [ [ [ 37.31945964517444, 48.590733662174223 ], [ 37.321668069517777, 48.591123384117161 ], [ 37.322750630470388, 48.59108008167906 ], [ 37.323717718254727, 48.590762530466293 ] ] ] } },
{ "type": "Feature", "properties": { "id": null, "length": null }, "geometry": { "type": "MultiLineString", "coordinates": [ [ [ 37.421179594938408, 48.702283398159352 ], [ 37.422466481984756, 48.701784092278714 ] ] ] } },
{ "type": "Feature", "properties": { "id": null, "length": null }, "geometry": { "type": "MultiLineString", "coordinates": [ [ [ 35.809263604827478, 47.923346979577772 ], [ 35.808782867262536, 47.924278234379607 ], [ 35.812228926606963, 47.926492408023812 ], [ 35.818541334378068, 47.930115601259779 ] ] ] } },
{ "type": "Feature", "properties": { "id": null, "length": null }, "geometry": { "type": "MultiLineString", "coordinates": [ [ [ 36.34941324163853, 48.269023141456131 ], [ 36.349218370339003, 48.269540369375157 ], [ 36.351569420172119, 48.270538760400179 ] ] ] } },
{ "type": "Feature", "properties": { "id": null, "length": null }, "geometry": { "type": "MultiLineString", "coordinates": [ [ [ 36.403421202428298, 48.376269238571567 ], [ 36.402728908663939, 48.379894783802101 ] ] ] } },
{ "type": "Feature", "properties": { "id": null, "length": null }, "geometry": { "type": "MultiLineString", "coordinates": [ [ [ 36.404390769946126, 48.377004766137595 ], [ 36.403807815094204, 48.379460000613783 ] ] ] } },
{ "type": "Feature", "properties": { "id": null, "length": null }, "geometry": { "type": "MultiLineString", "coordinates": [ [ [ 36.415581717132213, 48.387537959711302 ], [ 36.412289516986874, 48.385835460585419 ] ] ] } },
{ "type": "Feature", "properties": { "id": null, "length": null }, "geometry": { "type": "MultiLineString", "coordinates": [ [ [ 36.697436412543105, 48.384218125167919 ], [ 36.69379209861976, 48.385120233602429 ] ] ] } },
{ "type": "Feature", "properties": { "id": null, "length": null }, "geometry": { "type": "MultiLineString", "coordinates": [ [ [ 35.631874903996128, 47.634152364084748 ], [ 35.635191774841509, 47.634488894991506 ], [ 35.637575030836722, 47.632620937589849 ] ] ] } },
{ "type": "Feature", "properties": { "id": null, "length": null }, "geometry": { "type": "MultiLineString", "coordinates": [ [ [ 35.653023142274989, 47.629532631565027 ], [ 35.646335106927232, 47.625535581928411 ], [ 35.641633007260999, 47.624504984741293 ] ] ] } },
{ "type": "Feature", "properties": { "id": null, "length": null }, "geometry": { "type": "MultiLineString", "coordinates": [ [ [ 35.502210621805176, 47.706003281232661 ], [ 35.503855045808052, 47.704859359174471 ], [ 35.504402550563704, 47.705471276254322 ], [ 35.50558007842114, 47.70511206862745 ], [ 35.506757304836363, 47.705675081695048 ] ] ] } },
{ "type": "Feature", "properties": { "id": null, "length": null }, "geometry": { "type": "MultiLineString", "coordinates": [ [ [ 35.534805167583713, 47.707435852142297 ], [ 35.534740755259513, 47.705278039281758 ], [ 35.53126248975299, 47.704923771498684 ], [ 35.528331729002119, 47.705439070092247 ], [ 35.526592596248854, 47.706630698089853 ], [ 35.52437037106413, 47.70775791376326 ], [ 35.519732683722097, 47.707403645980193 ], [ 35.516995159943804, 47.707403645980186 ] ] ] } },
{ "type": "Feature", "properties": { "id": null, "length": null }, "geometry": { "type": "MultiLineString", "coordinates": [ [ [ 35.734934258857329, 47.747886791736661 ], [ 35.738652481567748, 47.748228697419641 ], [ 35.73807479125206, 47.751405241321017 ], [ 35.737769029332412, 47.753880691595178 ], [ 35.73645949466318, 47.760708341406882 ] ] ] } },
{ "type": "Feature", "properties": { "id": null, "length": null }, "geometry": { "type": "MultiLineString", "coordinates": [ [ [ 35.876019370920609, 47.710079032592795 ], [ 35.874307138439015, 47.709802089980357 ] ] ] } },
{ "type": "Feature", "properties": { "id": null, "length": null }, "geometry": { "type": "MultiLineString", "coordinates": [ [ [ 35.854481832670679, 47.700595599486597 ], [ 35.855965016019596, 47.69679171556902 ], [ 35.852808812134043, 47.69634082929965 ] ] ] } },
{ "type": "Feature", "properties": { "id": null, "length": null }, "geometry": { "type": "MultiLineString", "coordinates": [ [ [ 35.878390271143289, 47.770914681509666 ], [ 35.879146402360391, 47.772268464741828 ], [ 35.882869330609957, 47.772201575931689 ], [ 35.886722022552981, 47.772176574893379 ] ] ] } },
{ "type": "Feature", "properties": { "id": null, "length": null }, "geometry": { "type": "MultiLineString", "coordinates": [ [ [ 36.438169200609416, 48.071833873557146 ], [ 36.434508460397907, 48.072589318003267 ], [ 36.430434380892578, 48.07321733816417 ], [ 36.42381601458154, 48.072653730327481 ], [ 36.419951275129847, 48.074264038432354 ], [ 36.417181545189464, 48.074714924701723 ] ] ] } },
{ "type": "Feature", "properties": { "id": null, "length": null }, "geometry": { "type": "MultiLineString", "coordinates": [ [ [ 36.431572020131547, 48.148334303278403 ], [ 36.434540666560004, 48.151768167519862 ], [ 36.437535839635068, 48.154570103622341 ], [ 36.438276581363311, 48.155069299134851 ], [ 36.439387693955673, 48.155649010052606 ] ] ] } },
{ "type": "Feature", "properties": { "id": null, "length": null }, "geometry": { "type": "MultiLineString", "coordinates": [ [ [ 36.335965655920191, 48.226526721288572 ], [ 36.334033286194341, 48.222661981836872 ] ] ] } },
{ "type": "Feature", "properties": { "id": null, "length": null }, "geometry": { "type": "MultiLineString", "coordinates": [ [ [ 36.726490491915946, 48.314547103406454 ], [ 36.724637671652928, 48.314485775746995 ], [ 36.723550713682137, 48.314811863138232 ] ] ] } },
{ "type": "Feature", "properties": { "id": null, "length": null }, "geometry": { "type": "MultiLineString", "coordinates": [ [ [ 36.742198081536571, 48.302468851514384 ], [ 36.742934797494549, 48.296514737296611 ], [ 36.741074891633417, 48.29620072721616 ], [ 36.738610481671181, 48.295953468181175 ] ] ] } },
{ "type": "Feature", "properties": { "id": null, "length": null }, "geometry": { "type": "MultiLineString", "coordinates": [ [ [ 36.717624805895184, 48.294114719013763 ], [ 36.716240921328577, 48.294331763371943 ] ] ] } },
{ "type": "Feature", "properties": { "id": null, "length": null }, "geometry": { "type": "MultiLineString", "coordinates": [ [ [ 36.717531211142962, 48.294447300641544 ], [ 36.716349617125658, 48.29468200538475 ] ] ] } },
{ "type": "Feature", "properties": { "id": null, "length": null }, "geometry": { "type": "MultiLineString", "coordinates": [ [ [ 36.991422447600115, 48.42720633664559 ], [ 36.989212299726184, 48.427459960172108 ], [ 36.986845146812023, 48.428039671089856 ], [ 36.984767849356736, 48.427846434117271 ], [ 36.983560118278078, 48.427894743360419 ], [ 36.981724367038524, 48.42779812487413 ], [ 36.979985234285259, 48.428474454278174 ], [ 36.980323398987288, 48.429585566870536 ], [ 36.979260595638067, 48.429923731572558 ], [ 36.977424844398513, 48.429972040815706 ], [ 36.976023876347277, 48.430455133247172 ], [ 36.973705032676257, 48.430841607192342 ], [ 36.972207446138725, 48.431952719784704 ], [ 36.969888602467705, 48.432725667675037 ], [ 36.968197778957588, 48.432629049188748 ], [ 36.962835452968356, 48.433933398753695 ], [ 36.958922404273515, 48.435430985291227 ], [ 36.956555251359354, 48.43605900545213 ], [ 36.955830612712163, 48.435479294534375 ], [ 36.949019009428547, 48.436493788640441 ], [ 36.94619291870449, 48.437145963422921 ], [ 36.945365971353034, 48.437480975174076 ] ] ] } },
{ "type": "Feature", "properties": { "id": null, "length": null }, "geometry": { "type": "MultiLineString", "coordinates": [ [ [ 37.066495011449312, 48.528396085070703 ], [ 37.071495018114938, 48.529012027920835 ] ] ] } },
{ "type": "Feature", "properties": { "id": null, "length": null }, "geometry": { "type": "MultiLineString", "coordinates": [ [ [ 37.08098778439318, 48.577236729891496 ], [ 37.07750951888665, 48.574483103032165 ], [ 37.075987777727548, 48.575280205544075 ] ] ] } },
{ "type": "Feature", "properties": { "id": null, "length": null }, "geometry": { "type": "MultiLineString", "coordinates": [ [ [ 37.08098778439318, 48.577236729891496 ], [ 37.084529484310885, 48.579839490454283 ] ] ] } },
{ "type": "Feature", "properties": { "id": null, "length": null }, "geometry": { "type": "MultiLineString", "coordinates": [ [ [ 37.064592835000433, 48.648903492098881 ], [ 37.063505877029648, 48.651765814755294 ], [ 37.065027618188751, 48.651838278620012 ], [ 37.06459283500044, 48.653504947508559 ] ] ] } },
{ "type": "Feature", "properties": { "id": null, "length": null }, "geometry": { "type": "MultiLineString", "coordinates": [ [ [ 37.063505877029648, 48.651765814755294 ], [ 37.062563846788294, 48.654374513885188 ], [ 37.061404424952791, 48.658577418038909 ] ] ] } },
{ "type": "Feature", "properties": { "id": null, "length": null }, "geometry": { "type": "MultiLineString", "coordinates": [ [ [ 37.316731591573848, 48.590495498764632 ], [ 37.31945964517444, 48.590733662174223 ] ] ] } },
{ "type": "Feature", "properties": { "id": null, "length": null }, "geometry": { "type": "MultiLineString", "coordinates": [ [ [ 37.536433728370525, 48.600278241239664 ], [ 37.531513747319224, 48.597236756554047 ] ] ] } },
{ "type": "Feature", "properties": { "id": null, "length": null }, "geometry": { "type": "MultiLineString", "coordinates": [ [ [ 37.405458287250177, 48.732303766484208 ], [ 37.404688497249516, 48.733948812694941 ], [ 37.402958670952295, 48.733549023808692 ] ] ] } },
{ "type": "Feature", "properties": { "id": null, "length": null }, "geometry": { "type": "MultiLineString", "coordinates": [ [ [ 37.63311189620913, 48.749296066323865 ], [ 37.631238420835956, 48.750064952802056 ], [ 37.626950970715306, 48.749890843152478 ], [ 37.624992237157656, 48.750021425389654 ], [ 37.624121688909803, 48.749368514203766 ], [ 37.622989976187604, 48.749716733502908 ], [ 37.622273594839925, 48.748762301500349 ] ] ] } },
{ "type": "Feature", "properties": { "id": null, "length": null }, "geometry": { "type": "MultiLineString", "coordinates": [ [ [ 37.642126945475766, 48.751816048785102 ], [ 37.642555548057963, 48.75426534809791 ] ] ] } },
{ "type": "Feature", "properties": { "id": null, "length": null }, "geometry": { "type": "MultiLineString", "coordinates": [ [ [ 37.628348459392683, 48.741150377389495 ], [ 37.628887940566777, 48.740815377668675 ], [ 37.629889071051799, 48.740728322843893 ], [ 37.631456057897928, 48.737202602440099 ], [ 37.627495063370226, 48.736244999367479 ] ] ] } },
{ "type": "Feature", "properties": { "id": null, "length": null }, "geometry": { "type": "MultiLineString", "coordinates": [ [ [ 37.623414837220359, 48.730174474658057 ], [ 37.62322937695577, 48.732240477427382 ] ] ] } },
{ "type": "Feature", "properties": { "id": null, "length": null }, "geometry": { "type": "MultiLineString", "coordinates": [ [ [ 37.649380921093417, 48.774473124124967 ], [ 37.652915072207357, 48.777530750021647 ] ] ] } },
{ "type": "Feature", "properties": { "id": null, "length": null }, "geometry": { "type": "MultiLineString", "coordinates": [ [ [ 37.644737359604129, 48.81609059647473 ], [ 37.642648043809295, 48.814218917741854 ], [ 37.640085220844121, 48.812686687256601 ], [ 37.637598863971782, 48.81369658879315 ] ] ] } },
{ "type": "Feature", "properties": { "id": null, "length": null }, "geometry": { "type": "MultiLineString", "coordinates": [ [ [ 37.739060290974862, 48.845379534794382 ], [ 37.731661602151647, 48.843904612993434 ] ] ] } },
{ "type": "Feature", "properties": { "id": null, "length": null }, "geometry": { "type": "MultiLineString", "coordinates": [ [ [ 37.672968463932357, 48.869741827388637 ], [ 37.676213470611579, 48.868333526660969 ], [ 37.675565649431007, 48.866168884432106 ], [ 37.675696231668191, 48.863165492977039 ], [ 37.677045, 48.856836 ] ] ] } },
{ "type": "Feature", "properties": { "id": null, "length": null }, "geometry": { "type": "MultiLineString", "coordinates": [ [ [ 35.440643161093526, 47.716968404863259 ], [ 35.436463254286735, 47.717546843366996 ], [ 35.432744721048415, 47.71859354161186 ] ] ] } },
{ "type": "Feature", "properties": { "id": null, "length": null }, "geometry": { "type": "MultiLineString", "coordinates": [ [ [ 35.405297860105094, 47.718871373068595 ], [ 35.410843886501233, 47.717490351251314 ] ] ] } },
{ "type": "Feature", "properties": { "id": null, "length": null }, "geometry": { "type": "MultiLineString", "coordinates": [ [ [ 35.970059001640578, 47.874441401333627 ], [ 35.970472172000377, 47.883655100357466 ], [ 35.969728465352716, 47.885252692415413 ] ] ] } },
{ "type": "Feature", "properties": { "id": null, "length": null }, "geometry": { "type": "MultiLineString", "coordinates": [ [ [ 35.855965016019596, 47.69679171556902 ], [ 35.856464697382521, 47.692494947217064 ], [ 35.859770060261027, 47.688418333000236 ], [ 35.86043113283673, 47.685057880740416 ], [ 35.862469439945144, 47.675307060248819 ], [ 35.862579618707763, 47.674040004478726 ], [ 35.86191854613206, 47.672497501802084 ], [ 35.862138903657296, 47.670183747787128 ], [ 35.863295780664771, 47.668420887585256 ], [ 35.863350870046077, 47.667484368103018 ] ] ] } },
{ "type": "Feature", "properties": { "id": null, "length": null }, "geometry": { "type": "MultiLineString", "coordinates": [ [ [ 35.869025076320845, 47.734142519486262 ], [ 35.870732847141412, 47.73447305577411 ], [ 35.870126863947014, 47.736621541645142 ], [ 35.87576645020502, 47.737454470202437 ] ] ] } },
{ "type": "Feature", "properties": { "id": null, "length": null }, "geometry": { "type": "MultiLineString", "coordinates": [ [ [ 35.870126863947014, 47.736621541645142 ], [ 35.858833540778782, 47.735629932781592 ] ] ] } },
{ "type": "Feature", "properties": { "id": null, "length": null }, "geometry": { "type": "MultiLineString", "coordinates": [ [ [ 35.878059734855434, 47.770170974862012 ], [ 35.875208859372719, 47.76405605353677 ], [ 35.876737589704035, 47.760557877823693 ] ] ] } },
{ "type": "Feature", "properties": { "id": null, "length": null }, "geometry": { "type": "MultiLineString", "coordinates": [ [ [ 35.876737589704035, 47.75993812228397 ], [ 35.878335181761983, 47.753327396526963 ], [ 35.880166903690487, 47.747928637158729 ] ] ] } },
{ "type": "Feature", "properties": { "id": null, "length": null }, "geometry": { "type": "MultiLineString", "coordinates": [ [ [ 35.877723559070866, 47.758662439983482 ], [ 35.877009026265554, 47.758814936512174 ] ] ] } },
{ "type": "Feature", "properties": { "id": null, "length": null }, "geometry": { "type": "MultiLineString", "coordinates": [ [ [ 35.734934258857329, 47.747886791736661 ], [ 35.707599416741715, 47.745077761676022 ] ] ] } },
{ "type": "Feature", "properties": { "id": null, "length": null }, "geometry": { "type": "MultiLineString", "coordinates": [ [ [ 35.641633007260999, 47.624504984741293 ], [ 35.641078988811728, 47.62456974006372 ], [ 35.639729298969669, 47.632915781331953 ], [ 35.638352064436958, 47.632061895921673 ], [ 35.637575030836722, 47.632620937589849 ] ] ] } },
{ "type": "Feature", "properties": { "id": null, "length": null }, "geometry": { "type": "MultiLineString", "coordinates": [ [ [ 35.618901228124244, 47.695334891341169 ], [ 35.618109757688217, 47.694466392904722 ], [ 35.616123499078995, 47.694450620253484 ], [ 35.610394203422914, 47.694367986181533 ], [ 35.606758304256552, 47.688803958669375 ], [ 35.60499544405468, 47.686903375014232 ] ] ] } },
{ "type": "Feature", "properties": { "id": null, "length": null }, "geometry": { "type": "MultiLineString", "coordinates": [ [ [ 35.604527184313561, 47.684479442236658 ], [ 35.608658887911695, 47.67872260188993 ] ] ] } },
{ "type": "Feature", "properties": { "id": null, "length": null }, "geometry": { "type": "MultiLineString", "coordinates": [ ] } },
{ "type": "Feature", "properties": { "id": null, "length": null }, "geometry": { "type": "MultiLineString", "coordinates": [ [ [ 35.508263689507089, 47.705919059742058 ], [ 35.506757304836363, 47.705675081695048 ] ] ] } },
{ "type": "Feature", "properties": { "id": null, "length": null }, "geometry": { "type": "MultiLineString", "coordinates": [ [ [ 35.414154149655126, 47.700048507769537 ], [ 35.417985345211157, 47.70131459333863 ], [ 35.418060446582203, 47.703567112168813 ], [ 35.421660661941864, 47.704391037920388 ] ] ] } },
{ "type": "Feature", "properties": { "id": null, "length": null }, "geometry": { "type": "MultiLineString", "coordinates": [ [ [ 35.410843886501233, 47.717490351251314 ], [ 35.412161950957021, 47.717119900661871 ], [ 35.41387660795025, 47.710467857868863 ], [ 35.414124510166133, 47.707864884602031 ], [ 35.416438264181089, 47.710013370473064 ] ] ] } },
{ "type": "Feature", "properties": { "id": null, "length": null }, "geometry": { "type": "MultiLineString", "coordinates": [ [ [ 36.417181545189464, 48.074714924701723 ], [ 36.410593190476924, 48.076230668867552 ] ] ] } },
{ "type": "Feature", "properties": { "id": null, "length": null }, "geometry": { "type": "MultiLineString", "coordinates": [ [ [ 36.449033627427049, 48.158117284208842 ], [ 36.446916129333005, 48.157549174964096 ], [ 36.443269900907652, 48.156764151280449 ], [ 36.440718573935811, 48.156123737222735 ], [ 36.439861245439197, 48.155855176488856 ] ] ] } },
{ "type": "Feature", "properties": { "id": null, "length": null }, "geometry": { "type": "MultiLineString", "coordinates": [ [ [ 36.488615347897181, 48.18603727127325 ], [ 36.494606318114471, 48.1772987181632 ] ] ] } },
{ "type": "Feature", "properties": { "id": null, "length": null }, "geometry": { "type": "MultiLineString", "coordinates": [ [ [ 36.334033286194341, 48.222661981836872 ], [ 36.332767488175527, 48.220144484475867 ] ] ] } },
{ "type": "Feature", "properties": { "id": null, "length": null }, "geometry": { "type": "MultiLineString", "coordinates": [ [ [ 35.389474859715101, 47.68496504633351 ], [ 35.392980517002627, 47.683446516337078 ], [ 35.394086689197088, 47.68307371392104 ], [ 35.395046368801694, 47.683694418552967 ], [ 35.396203245809168, 47.684851295560442 ], [ 35.395790075449355, 47.689974608022133 ], [ 35.395872709521321, 47.691544655389421 ], [ 35.395650797502469, 47.693764036406662 ], [ 35.394614991513834, 47.694857189945033 ] ] ] } },
{ "type": "Feature", "properties": { "id": null, "length": null }, "geometry": { "type": "MultiLineString", "coordinates": [ [ [ 36.330599120658704, 48.214777764597926 ], [ 36.332767488175527, 48.220144484475867 ] ] ] } },
{ "type": "Feature", "properties": { "id": null, "length": null }, "geometry": { "type": "MultiLineString", "coordinates": [ [ [ 36.494606318114471, 48.1772987181632 ], [ 36.497464274131801, 48.173269019952834 ], [ 36.498118351320144, 48.17266525639436 ], [ 36.499748740847821, 48.167669265403177 ] ] ] } },
{ "type": "Feature", "properties": { "id": null, "length": null }, "geometry": { "type": "MultiLineString", "coordinates": [ [ [ 36.723550713682137, 48.314811863138232 ], [ 36.721460554325439, 48.316033944716857 ] ] ] } },
{ "type": "Feature", "properties": { "id": null, "length": null }, "geometry": { "type": "MultiLineString", "coordinates": [ [ [ 36.740806145011526, 48.311027738544503 ], [ 36.742198081536571, 48.302468851514384 ] ] ] } },
{ "type": "Feature", "properties": { "id": null, "length": null }, "geometry": { "type": "MultiLineString", "coordinates": [ [ [ 37.075987777727548, 48.575280205544075 ], [ 37.070385577493198, 48.582847123932218 ] ] ] } },
{ "type": "Feature", "properties": { "id": null, "length": null }, "geometry": { "type": "MultiLineString", "coordinates": [ [ [ 37.071495018114938, 48.529012027920835 ], [ 37.073555336175183, 48.529061853598208 ], [ 37.074964117811618, 48.530571262494391 ] ] ] } },
{ "type": "Feature", "properties": { "id": null, "length": null }, "geometry": { "type": "MultiLineString", "coordinates": [ [ [ 37.057618188021195, 48.527091735505756 ], [ 37.056473858833371, 48.526659377771779 ], [ 37.056109797002129, 48.527191468140529 ], [ 37.055354380568701, 48.526948681143544 ], [ 37.054624832935552, 48.527753699221513 ] ] ] } },
{ "type": "Feature", "properties": { "id": null, "length": null }, "geometry": { "type": "MultiLineString", "coordinates": [ [ [ 37.356826009147291, 48.584908311806203 ], [ 37.355915427021252, 48.584318797606009 ] ] ] } },
{ "type": "Feature", "properties": { "id": null, "length": null }, "geometry": { "type": "MultiLineString", "coordinates": [ [ [ 35.865123361437675, 47.787500215276722 ], [ 35.865579641778432, 47.784143202227 ], [ 35.866081550153268, 47.781276540025395 ], [ 35.866606272545141, 47.778287071496962 ] ] ] } },
{ "type": "Feature", "properties": { "id": null, "length": null }, "geometry": { "type": "MultiLineString", "coordinates": [ [ [ 36.330599120658704, 48.214777764597926 ], [ 36.329359106428498, 48.212295841951523 ] ] ] } },
{ "type": "Feature", "properties": { "id": null, "length": null }, "geometry": { "type": "MultiLineString", "coordinates": [ [ [ 36.402728908663939, 48.379894783802101 ], [ 36.401995568392849, 48.382812916179873 ] ] ] } },
{ "type": "Feature", "properties": { "id": null, "length": null }, "geometry": { "type": "MultiLineString", "coordinates": [ [ [ 36.406807733997987, 48.383129500318532 ], [ 36.403266706477226, 48.382586783446726 ], [ 36.403807815094204, 48.379460000613776 ] ] ] } },
{ "type": "Feature", "properties": { "id": null, "length": null }, "geometry": { "type": "MultiLineString", "coordinates": [ [ [ 36.69379209861976, 48.385120233602422 ], [ 36.684163154414954, 48.38781193227311 ], [ 36.675516890283888, 48.390180548038209 ] ] ] } },
{ "type": "Feature", "properties": { "id": null, "length": null }, "geometry": { "type": "MultiLineString", "coordinates": [ [ [ 36.70244612409666, 48.383138465652422 ], [ 36.69518107199017, 48.385058742949617 ] ] ] } },
{ "type": "Feature", "properties": { "id": null, "length": null }, "geometry": { "type": "MultiLineString", "coordinates": [ [ [ 37.233126079574085, 49.715319691206744 ], [ 37.232980913810614, 49.716943800183543 ], [ 37.234342024347626, 49.720616383937141 ], [ 37.231233368382547, 49.722546951784665 ] ] ] } },
{ "type": "Feature", "properties": { "id": null, "length": null }, "geometry": { "type": "MultiLineString", "coordinates": [ [ [ 35.60499544405468, 47.686903375014232 ], [ 35.604216118068187, 47.685661953306649 ], [ 35.604527184313561, 47.68447944223665 ] ] ] } },
{ "type": "Feature", "properties": { "id": null, "length": null }, "geometry": { "type": "MultiLineString", "coordinates": [ [ [ 35.608658887911695, 47.67872260188993 ], [ 35.611401107537681, 47.674565563295189 ] ] ] } },
{ "type": "Feature", "properties": { "id": null, "length": null }, "geometry": { "type": "MultiLineString", "coordinates": [ [ [ 35.611535038262446, 47.674348067443859 ], [ 35.611527159984519, 47.671366691469878 ] ] ] } },
{ "type": "Feature", "properties": { "id": null, "length": null }, "geometry": { "type": "MultiLineString", "coordinates": [ [ [ 35.829647767784245, 47.699200479623322 ], [ 35.836215646464851, 47.706220103729443 ], [ 35.83629442924412, 47.707036535574865 ], [ 35.838374294616848, 47.711213921769996 ] ] ] } },
{ "type": "Feature", "properties": { "id": null, "length": null }, "geometry": { "type": "MultiLineString", "coordinates": [ [ [ 35.858833540778782, 47.735629932781592 ], [ 35.858353607439952, 47.734808804121492 ] ] ] } },
{ "type": "Feature", "properties": { "id": null, "length": null }, "geometry": { "type": "MultiLineString", "coordinates": [ [ [ 35.687429325958426, 47.756908227540386 ], [ 35.688824887807016, 47.757009344843311 ] ] ] } },
{ "type": "Feature", "properties": { "id": null, "length": null }, "geometry": { "type": "MultiLineString", "coordinates": [ [ [ 35.846477014541286, 47.841389991943821 ], [ 35.848694838701363, 47.840240147754301 ] ] ] } },
{ "type": "Feature", "properties": { "id": null, "length": null }, "geometry": { "type": "MultiLineString", "coordinates": [ [ [ 35.839619062529373, 47.862455150578732 ], [ 35.838673669178121, 47.86572157104473 ], [ 35.837722111794925, 47.868605615909424 ] ] ] } },
{ "type": "Feature", "properties": { "id": null, "length": null }, "geometry": { "type": "MultiLineString", "coordinates": [ [ [ 36.476814181271578, 48.091175961772201 ], [ 36.473410765207078, 48.106560547573849 ] ] ] } },
{ "type": "Feature", "properties": { "id": null, "length": null }, "geometry": { "type": "MultiLineString", "coordinates": [ [ [ 36.397697173714739, 48.026943582971093 ], [ 36.392705686122085, 48.027189051284722 ], [ 36.390027915644083, 48.027429265300306 ] ] ] } },
{ "type": "Feature", "properties": { "id": null, "length": null }, "geometry": { "type": "MultiLineString", "coordinates": [ ] } },
{ "type": "Feature", "properties": { "id": null, "length": null }, "geometry": { "type": "MultiLineString", "coordinates": [ [ [ 36.486568125543776, 48.115627105914967 ], [ 36.485228182097728, 48.122550584515992 ], [ 36.483722126522295, 48.129923007058643 ] ] ] } },
{ "type": "Feature", "properties": { "id": null, "length": null }, "geometry": { "type": "MultiLineString", "coordinates": [ [ [ 36.431654458117883, 48.108281133082308 ], [ 36.431852849141762, 48.107007705044687 ] ] ] } },
{ "type": "Feature", "properties": { "id": null, "length": null }, "geometry": { "type": "MultiLineString", "coordinates": [ [ [ 36.558477826104735, 48.162330347479923 ], [ 36.547420944785998, 48.160974913060379 ] ] ] } },
{ "type": "Feature", "properties": { "id": null, "length": null }, "geometry": { "type": "MultiLineString", "coordinates": [ [ [ 36.449033627427042, 48.158117284208842 ], [ 36.45049285471724, 48.158599316317918 ], [ 36.453675678999787, 48.160018246710479 ], [ 36.455204064917638, 48.160869586108149 ], [ 36.455963195218438, 48.161467798628998 ] ] ] } },
{ "type": "Feature", "properties": { "id": null, "length": null }, "geometry": { "type": "MultiLineString", "coordinates": [ [ [ 36.336128691033323, 48.226830196995195 ], [ 36.335965655920191, 48.226526721288572 ] ] ] } },
{ "type": "Feature", "properties": { "id": null, "length": null }, "geometry": { "type": "MultiLineString", "coordinates": [ [ [ 36.724801696829864, 48.37541589723547 ], [ 36.73062866124841, 48.375501103904199 ], [ 36.737971216276456, 48.366792457836922 ] ] ] } },
{ "type": "Feature", "properties": { "id": null, "length": null }, "geometry": { "type": "MultiLineString", "coordinates": [ [ [ 36.724767222470675, 48.37633839522956 ], [ 36.730282017019618, 48.37642212360474 ] ] ] } },
{ "type": "Feature", "properties": { "id": null, "length": null }, "geometry": { "type": "MultiLineString", "coordinates": [ [ [ 36.740806145011526, 48.311027738544503 ], [ 36.736742204919828, 48.310820645478209 ] ] ] } },
{ "type": "Feature", "properties": { "id": null, "length": null }, "geometry": { "type": "MultiLineString", "coordinates": [ [ [ 36.785902659184814, 48.299197537392509 ], [ 36.785240883838945, 48.301776020656845 ], [ 36.784421542934531, 48.301880834294906 ], [ 36.783097992242773, 48.301859871584512 ] ] ] } },
{ "type": "Feature", "properties": { "id": null, "length": null }, "geometry": { "type": "MultiLineString", "coordinates": [ [ [ 36.910488537357963, 48.366912636782239 ], [ 36.91038732871062, 48.369100603442085 ], [ 36.909631014029628, 48.372523375070799 ] ] ] } },
{ "type": "Feature", "properties": { "id": null, "length": null }, "geometry": { "type": "MultiLineString", "coordinates": [ [ [ 37.074964117811618, 48.530571262494391 ], [ 37.073751299806545, 48.532476853391103 ] ] ] } },
{ "type": "Feature", "properties": { "id": null, "length": null }, "geometry": { "type": "MultiLineString", "coordinates": [ [ [ 37.070385577493198, 48.582847123932211 ], [ 37.066900655561483, 48.586865381883435 ] ] ] } },
{ "type": "Feature", "properties": { "id": null, "length": null }, "geometry": { "type": "MultiLineString", "coordinates": [ [ [ 37.524302136178299, 48.598246031089047 ], [ 37.522198635971769, 48.597198774139009 ], [ 37.517991635558701, 48.597667697845601 ], [ 37.516904433204765, 48.599074442849052 ], [ 37.513311938470025, 48.601950332942124 ] ] ] } },
{ "type": "Feature", "properties": { "id": null, "length": null }, "geometry": { "type": "MultiLineString", "coordinates": [ [ [ 37.623229376955763, 48.732240477427382 ], [ 37.621275859182724, 48.732567796295115 ], [ 37.620803162507102, 48.73409548865768 ] ] ] } },
{ "type": "Feature", "properties": { "id": null, "length": null }, "geometry": { "type": "MultiLineString", "coordinates": [ [ [ 37.65291507220735, 48.777530750021647 ], [ 37.65470745366202, 48.778799837823627 ] ] ] } },
{ "type": "Feature", "properties": { "id": null, "length": null }, "geometry": { "type": "MultiLineString", "coordinates": [ [ [ 37.709766171030282, 48.888993638765676 ], [ 37.694859113552084, 48.890977101573242 ] ] ] } },
{ "type": "Feature", "properties": { "id": null, "length": null }, "geometry": { "type": "MultiLineString", "coordinates": [ [ [ 37.694567478738342, 48.891051609022725 ], [ 37.693941155643131, 48.891370172597412 ] ] ] } },
{ "type": "Feature", "properties": { "id": null, "length": null }, "geometry": { "type": "MultiLineString", "coordinates": [ [ [ 37.056916962946175, 48.846856757953319 ], [ 37.055209772705155, 48.846347128686922 ] ] ] } },
{ "type": "Feature", "properties": { "id": null, "length": null }, "geometry": { "type": "MultiLineString", "coordinates": [ [ [ 35.886916828676348, 47.772182514104458 ], [ 35.888098714252337, 47.772218547201284 ], [ 35.892410518686283, 47.772085330862474 ] ] ] } },
{ "type": "Feature", "properties": { "id": null, "length": null }, "geometry": { "type": "MultiLineString", "coordinates": [ ] } },
{ "type": "Feature", "properties": { "id": null, "length": null }, "geometry": { "type": "MultiLineString", "coordinates": [ [ [ 35.707599416741715, 47.745077761676015 ], [ 35.706836115129086, 47.745091881787985 ], [ 35.705001543611267, 47.745545920987503 ] ] ] } },
{ "type": "Feature", "properties": { "id": null, "length": null }, "geometry": { "type": "MultiLineString", "coordinates": [ [ [ 35.822873122020944, 47.693775548632715 ], [ 35.824019370830179, 47.694308755136987 ], [ 35.827510152746036, 47.698784801338604 ], [ 35.829548565543639, 47.70118558733062 ], [ 35.834211434818101, 47.70608970653533 ], [ 35.835358042016736, 47.708318699111047 ], [ 35.837243573854508, 47.712347789942946 ] ] ] } },
{ "type": "Feature", "properties": { "id": null, "length": null }, "geometry": { "type": "MultiLineString", "coordinates": [ [ [ 35.80762071003943, 47.924475300576987 ], [ 35.811750673804745, 47.927416003469887 ] ] ] } },
{ "type": "Feature", "properties": { "id": null, "length": null }, "geometry": { "type": "MultiLineString", "coordinates": [ [ [ 35.818541334378068, 47.930115601259779 ], [ 35.82734453170626, 47.934722957745407 ], [ 35.834096774098256, 47.938546746550919 ] ] ] } },
{ "type": "Feature", "properties": { "id": null, "length": null }, "geometry": { "type": "MultiLineString", "coordinates": [ [ [ 35.904410020201688, 48.008375938586894 ], [ 35.899364203860884, 48.003405602593055 ], [ 35.892051397949544, 47.999910556178044 ], [ 35.891159592350611, 47.999586613056422 ] ] ] } },
{ "type": "Feature", "properties": { "id": null, "length": null }, "geometry": { "type": "MultiLineString", "coordinates": [ [ [ 35.891223292750531, 48.000592535048355 ], [ 35.895440259225524, 48.00250202792337 ], [ 35.898574318901815, 48.004155728030504 ], [ 35.902421823057246, 48.007803909838451 ], [ 35.904230914415102, 48.009525625640535 ], [ 35.905301081133835, 48.011264329800348 ] ] ] } },
{ "type": "Feature", "properties": { "id": null, "length": null }, "geometry": { "type": "MultiLineString", "coordinates": [ [ [ 36.329359106428498, 48.212295841951523 ], [ 36.326605971174388, 48.206962426131469 ], [ 36.32507716157621, 48.204695406366895 ] ] ] } },
{ "type": "Feature", "properties": { "id": null, "length": null }, "geometry": { "type": "MultiLineString", "coordinates": [ [ [ 36.337732263581557, 48.230297922630768 ], [ 36.33796693750093, 48.230947840788708 ], [ 36.33882689289991, 48.231940757013071 ], [ 36.339035166277, 48.232442700914028 ] ] ] } },
{ "type": "Feature", "properties": { "id": null, "length": null }, "geometry": { "type": "MultiLineString", "coordinates": [ [ [ 36.344606290271436, 48.336530307817583 ], [ 36.348176519098821, 48.336486746700935 ] ] ] } },
{ "type": "Feature", "properties": { "id": null, "length": null }, "geometry": { "type": "MultiLineString", "coordinates": [ [ [ 36.436037632027443, 48.407766149326889 ], [ 36.435033805970228, 48.412415576918718 ], [ 36.434197931202469, 48.417252087563632 ] ] ] } },
{ "type": "Feature", "properties": { "id": null, "length": null }, "geometry": { "type": "MultiLineString", "coordinates": [ [ [ 36.430476042355593, 48.422013751472782 ], [ 36.431894968763913, 48.420900874656361 ], [ 36.434503500140849, 48.409656598823808 ], [ 36.437470346267361, 48.39591656218704 ] ] ] } },
{ "type": "Feature", "properties": { "id": null, "length": null }, "geometry": { "type": "MultiLineString", "coordinates": [ [ [ 36.246356639474364, 48.338741680523682 ], [ 36.246291338356173, 48.339230010405906 ] ] ] } },
{ "type": "Feature", "properties": { "id": null, "length": null }, "geometry": { "type": "MultiLineString", "coordinates": [ [ [ 36.247581035440547, 48.339186603494689 ], [ 36.247466758483711, 48.339685780742272 ] ] ] } },
{ "type": "Feature", "properties": { "id": null, "length": null }, "geometry": { "type": "MultiLineString", "coordinates": [ [ [ 36.69518107199017, 48.385058742949617 ], [ 36.688154511367671, 48.387003536239703 ] ] ] } },
{ "type": "Feature", "properties": { "id": null, "length": null }, "geometry": { "type": "MultiLineString", "coordinates": [ [ [ 36.675516890283888, 48.390180548038209 ], [ 36.667143540522218, 48.392528864512073 ] ] ] } },
{ "type": "Feature", "properties": { "id": null, "length": null }, "geometry": { "type": "MultiLineString", "coordinates": [ [ [ 36.688154511367671, 48.387003536239703 ], [ 36.667358880286464, 48.392711577305548 ] ] ] } },
{ "type": "Feature", "properties": { "id": null, "length": null }, "geometry": { "type": "MultiLineString", "coordinates": [ [ [ 35.440643161093519, 47.716968404863252 ], [ 35.444429400905811, 47.717214562115949 ], [ 35.44790978057064, 47.71818431462291 ] ] ] } },
{ "type": "Feature", "properties": { "id": null, "length": null }, "geometry": { "type": "MultiLineString", "coordinates": [ [ [ 35.611527159984519, 47.671366691469878 ], [ 35.611664357596467, 47.668728441231892 ], [ 35.611509390841228, 47.666328172566885 ], [ 35.610992834990448, 47.665910723270535 ], [ 35.608358400151459, 47.664449624441986 ], [ 35.606498799088641, 47.663597297905191 ] ] ] } },
{ "type": "Feature", "properties": { "id": null, "length": null }, "geometry": { "type": "MultiLineString", "coordinates": [ [ [ 35.464406324667308, 47.635856815888616 ], [ 35.466408852356579, 47.634992806398714 ] ] ] } },
{ "type": "Feature", "properties": { "id": null, "length": null }, "geometry": { "type": "MultiLineString", "coordinates": [ [ [ 35.850631702425417, 47.667273990951301 ], [ 35.848931373756898, 47.667345691239966 ], [ 35.847949917640399, 47.667589197040712 ], [ 35.847226739449312, 47.667345691239966 ], [ 35.847175083864222, 47.666302082083675 ], [ 35.847846606470242, 47.665815057336573 ], [ 35.848983029341973, 47.665780269680752 ], [ 35.849292962852445, 47.666336869391735 ], [ 35.848931373756898, 47.667345691239966 ] ] ] } },
{ "type": "Feature", "properties": { "id": null, "length": null }, "geometry": { "type": "MultiLineString", "coordinates": [ [ [ 35.878659162969399, 47.770880861037242 ], [ 35.879408168953034, 47.772087282380724 ], [ 35.888241274001395, 47.771922377517463 ] ] ] } },
{ "type": "Feature", "properties": { "id": null, "length": null }, "geometry": { "type": "MultiLineString", "coordinates": [ [ [ 35.997260386308938, 47.949628514009227 ], [ 36.010174282578483, 47.947241192181387 ], [ 36.021641822465845, 47.946964394110893 ], [ 36.02629812979486, 47.947706221409689 ] ] ] } },
{ "type": "Feature", "properties": { "id": null, "length": null }, "geometry": { "type": "MultiLineString", "coordinates": [ [ [ 35.984759734720008, 47.94601288943749 ], [ 35.978044508659842, 47.946912494307647 ] ] ] } },
{ "type": "Feature", "properties": { "id": null, "length": null }, "geometry": { "type": "MultiLineString", "coordinates": [ [ [ 36.359985904728021, 48.000670033823667 ], [ 36.366417025070255, 48.002553731112243 ] ] ] } },
{ "type": "Feature", "properties": { "id": null, "length": null }, "geometry": { "type": "MultiLineString", "coordinates": [ [ [ 36.359985904728021, 48.000981107842208 ], [ 36.36610709155979, 48.002830231346863 ] ] ] } },
{ "type": "Feature", "properties": { "id": null, "length": null }, "geometry": { "type": "MultiLineString", "coordinates": [ [ [ 36.392087855114504, 48.007000049177314 ], [ 36.390540183301773, 48.009621303079903 ] ] ] } },
{ "type": "Feature", "properties": { "id": null, "length": null }, "geometry": { "type": "MultiLineString", "coordinates": [ [ [ 36.438487041364503, 48.070883148062372 ], [ 36.432071273704651, 48.071270241347612 ], [ 36.427577237802844, 48.071339274413134 ], [ 36.425459358814635, 48.071546373054048 ], [ 36.423961346847371, 48.071822503278788 ] ] ] } },
{ "type": "Feature", "properties": { "id": null, "length": null }, "geometry": { "type": "MultiLineString", "coordinates": [ [ [ 36.431852849141762, 48.10700770504468 ], [ 36.43101233421055, 48.106947984367963 ] ] ] } },
{ "type": "Feature", "properties": { "id": null, "length": null }, "geometry": { "type": "MultiLineString", "coordinates": [ [ [ 36.274712717608281, 48.327197502263587 ], [ 36.270415120202401, 48.326385349912997 ] ] ] } },
{ "type": "Feature", "properties": { "id": null, "length": null }, "geometry": { "type": "MultiLineString", "coordinates": [ [ [ 36.737971216276456, 48.366792457836922 ], [ 36.738905449069115, 48.365661008877325 ], [ 36.739422004919902, 48.36421960553271 ], [ 36.741229950397639, 48.363224327035283 ] ] ] } },
{ "type": "Feature", "properties": { "id": null, "length": null }, "geometry": { "type": "MultiLineString", "coordinates": [ [ [ 36.730282017019618, 48.37642212360474 ], [ 36.731208766892472, 48.376058495774586 ], [ 36.732500156519436, 48.374565917775392 ] ] ] } },
{ "type": "Feature", "properties": { "id": null, "length": null }, "geometry": { "type": "MultiLineString", "coordinates": [ [ [ 36.909631014029628, 48.372523375070799 ], [ 36.909652985545101, 48.374102695016639 ] ] ] } },
{ "type": "Feature", "properties": { "id": null, "length": null }, "geometry": { "type": "MultiLineString", "coordinates": [ [ [ 37.073751299806545, 48.532476853391103 ], [ 37.071593244765218, 48.537033632107907 ] ] ] } },
{ "type": "Feature", "properties": { "id": null, "length": null }, "geometry": { "type": "MultiLineString", "coordinates": [ [ [ 37.620803162507102, 48.73409548865768 ], [ 37.620382180636028, 48.735737987462485 ], [ 37.618832513083682, 48.737373251745346 ], [ 37.618838268083628, 48.739120291949057 ] ] ] } },
{ "type": "Feature", "properties": { "id": null, "length": null }, "geometry": { "type": "MultiLineString", "coordinates": [ [ [ 37.603536721292144, 48.752559576536441 ], [ 37.606848417345546, 48.752258523737126 ] ] ] } },
{ "type": "Feature", "properties": { "id": null, "length": null }, "geometry": { "type": "MultiLineString", "coordinates": [ [ [ 37.617644434626882, 48.734221913683051 ], [ 37.617153706568637, 48.736010535203626 ], [ 37.618832513083682, 48.737373251745346 ] ] ] } },
{ "type": "Feature", "properties": { "id": null, "length": null }, "geometry": { "type": "MultiLineString", "coordinates": [ [ [ 37.655486265555403, 48.744096792697185 ], [ 37.653260960538304, 48.743879713915732 ] ] ] } },
{ "type": "Feature", "properties": { "id": null, "length": null }, "geometry": { "type": "MultiLineString", "coordinates": [ [ [ 37.649903347508221, 48.743641272054994 ], [ 37.648095402030485, 48.743573145601289 ] ] ] } },
{ "type": "Feature", "properties": { "id": null, "length": null }, "geometry": { "type": "MultiLineString", "coordinates": [ [ [ 37.630861443967788, 48.750049644120928 ], [ 37.63130733688007, 48.755613061993827 ], [ 37.63329607690558, 48.756822003106244 ] ] ] } },
{ "type": "Feature", "properties": { "id": null, "length": null }, "geometry": { "type": "MultiLineString", "coordinates": [ [ [ 37.661944382392562, 48.796524375522232 ], [ 37.660208636731319, 48.794778164232817 ], [ 37.658245724498357, 48.79355312214124 ] ] ] } },
{ "type": "Feature", "properties": { "id": null, "length": null }, "geometry": { "type": "MultiLineString", "coordinates": [ [ [ 37.644737359604129, 48.816090596474723 ], [ 37.649774208545523, 48.820497138426212 ] ] ] } },
{ "type": "Feature", "properties": { "id": null, "length": null }, "geometry": { "type": "MultiLineString", "coordinates": [ [ [ 37.677690098564177, 48.820078024375135 ], [ 37.674155644702431, 48.821160350158728 ], [ 37.670952998427573, 48.82292887187598 ], [ 37.66749207422734, 48.822418727784864 ], [ 37.666458962525766, 48.8218405582043 ] ] ] } },
{ "type": "Feature", "properties": { "id": null, "length": null }, "geometry": { "type": "MultiLineString", "coordinates": [ [ [ 37.665528900611996, 48.824915236913206 ], [ 37.669145052949851, 48.823983153209468 ] ] ] } },
{ "type": "Feature", "properties": { "id": null, "length": null }, "geometry": { "type": "MultiLineString", "coordinates": [ [ [ 37.659044581863775, 48.833248966779017 ], [ 37.65530135614889, 48.835408779616927 ] ] ] } },
{ "type": "Feature", "properties": { "id": null, "length": null }, "geometry": { "type": "MultiLineString", "coordinates": [ [ [ 37.65530135614889, 48.835408779616927 ], [ 37.653080165990531, 48.835442780568911 ], [ 37.651892087533732, 48.835680786586515 ] ] ] } },
{ "type": "Feature", "properties": { "id": null, "length": null }, "geometry": { "type": "MultiLineString", "coordinates": [ [ [ 37.738119084173675, 48.832366009375768 ], [ 37.736452280306736, 48.833164665763917 ], [ 37.735367513020094, 48.834150728171082 ], [ 37.735264201849937, 48.835204773420529 ], [ 37.734850957169307, 48.836394797854723 ], [ 37.735884068870874, 48.83823078009965 ] ] ] } },
{ "type": "Feature", "properties": { "id": null, "length": null }, "geometry": { "type": "MultiLineString", "coordinates": [ [ [ 37.678133124753444, 48.841035623038202 ], [ 37.677022529674268, 48.84307541016031 ], [ 37.676505973823488, 48.846704326031798 ] ] ] } },
{ "type": "Feature", "properties": { "id": null, "length": null }, "geometry": { "type": "MultiLineString", "coordinates": [ [ [ 37.667621213190031, 48.874681487964601 ], [ 37.66540002303168, 48.875411930094394 ], [ 37.665012606143577, 48.875751666985948 ] ] ] } },
{ "type": "Feature", "properties": { "id": null, "length": null }, "geometry": { "type": "MultiLineString", "coordinates": [ [ [ 37.639701369455267, 48.863366766597331 ], [ 37.640579514401587, 48.863128892144168 ], [ 37.64021792530604, 48.862449244619476 ], [ 37.637841768392448, 48.862891016560383 ], [ 37.63815170190292, 48.86357065808587 ], [ 37.639701369455267, 48.863366766597331 ], [ 37.639207148710838, 48.862637167339635 ] ] ] } }
]
}
